[
    {
        "Altitude(m)": 607886.7420966523,
        "Argument of Periapsis(deg)": 0.0,
        "Eccentricity": 0.0,
        "Inclination(deg)": 60.0,
        "Latitude(deg)": 40.99858084183306,
        "Longitude(deg)": 104.9729595204706,
        "Mean Anomaly(deg)": 49.09089999999999,
        "RAAN(deg)": 175.0,
        "Satellite Name": "Test1 773",
        "Satellite Number": 773,
        "Semi-Major Axis(m)": 6980739.136638005,
        "Time(s)": 0
    },
    {
        "Altitude(m)": 607987.656322275,
        "Argument of Periapsis(deg)": 0.00010418945913296404,
        "Eccentricity": 0.0,
        "Inclination(deg)": 60.0,
        "Latitude(deg)": 41.46367110331105,
        "Longitude(deg)": 105.47718812159418,
        "Mean Anomaly(deg)": 49.71100614546182,
        "RAAN(deg)": 174.99957995086024,
        "Satellite Name": "Test1 773",
        "Satellite Number": 773,
        "Semi-Major Axis(m)": 6980739.136638005,
        "Time(s)": 10
    }
]